{
    "links": {
        "self": "http://www.neowsapp.com/rest/v1/neo/3725975?api_key=iIulBulltgU6a56xZRHN4H3l9WmuAYTsLGpBGhQ2"
    },
    "id": "3725975",
    "neo_reference_id": "3725975",
    "name": "(2015 PV227)",
    "designation": "2015 PV227",
    "nasa_jpl_url": "http://ssd.jpl.nasa.gov/sbdb.cgi?sstr=3725975",
    "absolute_magnitude_h": 23.6,
    "estimated_diameter": {
        "kilometers": {
            "estimated_diameter_min": 0.0506471459,
            "estimated_diameter_max": 0.1132504611
        },
        "meters": {
            "estimated_diameter_min": 50.6471458835,
            "estimated_diameter_max": 113.2504610618
        },
        "miles": {
            "estimated_diameter_min": 0.0314706677,
            "estimated_diameter_max": 0.0703705522
        },
        "feet": {
            "estimated_diameter_min": 166.1651821003,
            "estimated_diameter_max": 371.5566426699
        }
    },
    "is_potentially_hazardous_asteroid": false,
    "close_approach_data": [
        {
            "close_approach_date": "1999-07-27",
            "close_approach_date_full": "1999-Jul-27 11:40",
            "epoch_date_close_approach": 933075600000,
            "relative_velocity": {
                "kilometers_per_second": "9.9245016097",
                "kilometers_per_hour": "35728.2057949092",
                "miles_per_hour": "22200.1176507312"
            },
            "miss_distance": {
                "astronomical": "0.3452114753",
                "lunar": "134.2872638917",
                "kilometers": "51642901.404437611",
                "miles": "32089410.9269605918"
            },
            "orbiting_body": "Earth"
        },
        {
            "close_approach_date": "2015-08-08",
            "close_approach_date_full": "2015-Aug-08 13:21",
            "epoch_date_close_approach": 1439040060000,
            "relative_velocity": {
                "kilometers_per_second": "5.9766310807",
                "kilometers_per_hour": "21515.8718904261",
                "miles_per_hour": "13369.1260643595"
            },
            "miss_distance": {
                "astronomical": "0.1574086194",
                "lunar": "61.2319529466",
                "kilometers": "23547994.181880678",
                "miles": "14632045.0876742364"
            },
            "orbiting_body": "Earth"
        },
        {
            "close_approach_date": "2031-08-19",
            "close_approach_date_full": "2031-Aug-19 14:24",
            "epoch_date_close_approach": 1944915840000,
            "relative_velocity": {
                "kilometers_per_second": "10.7983815312",
                "kilometers_per_hour": "38874.1735123801",
                "miles_per_hour": "24154.8996471786"
            },
            "miss_distance": {
                "astronomical": "0.3976156607",
                "lunar": "154.6724920123",
                "kilometers": "59482455.919362709",
                "miles": "36960684.2185910242"
            },
            "orbiting_body": "Earth"
        }
    ],
    "orbital_data": {
        "orbit_id": "10",
        "orbit_determination_date": "2017-04-06 08:32:29",
        "first_observation_date": "2015-08-12",
        "last_observation_date": "2015-09-08",
        "data_arc_in_days": 27,
        "observations_used": 28,
        "orbit_uncertainty": "7",
        "minimum_orbit_intersection": ".15522",
        "jupiter_tisserand_invariant": "3.526",
        "epoch_osculation": "2459000.5",
        "eccentricity": ".4629038987494004",
        "semi_major_axis": "2.175911896734148",
        "inclination": "8.086005173225407",
        "ascending_node_longitude": "132.9169218172852",
        "orbital_period": "1172.35836590197",
        "perihelion_distance": "1.168673796400708",
        "perihelion_argument": "183.4022237735503",
        "aphelion_distance": "3.183149997067587",
        "perihelion_time": "2458417.539122676889",
        "mean_anomaly": "179.0117441392221",
        "mean_motion": ".3070733407724089",
        "equinox": "J2000",
        "orbit_class": {
            "orbit_class_type": "AMO",
            "orbit_class_description": "Near-Earth asteroid orbits similar to that of 1221 Amor",
            "orbit_class_range": "1.017 AU < q (perihelion) < 1.3 AU"
        }
    },
    "is_sentry_object": false
}